COSMOS 2433 (720)       
1 32275C 07052A   22281.99979167  .00000000  00000-0  00000-0 0  2819
2 32275  66.0753   0.9048 0004352 228.3592  21.4497  2.13104050    18
COSMOS 2432 (719)       
1 32276C 07052B   22281.99979167  .00000000  00000-0  00000-0 0  2810
2 32276  66.0891   1.0077 0008809 316.4664 241.3386  2.13103061    17
COSMOS 2434 (721)       
1 32393C 07065A   22281.99979167  .00000000  00000-0  00000-0 0  2814
2 32393  64.3698 237.5507 0000918  77.6402  62.1244  2.13102996    14
COSMOS 2436 (723)       
1 32395C 07065C   22281.99979167  .00000000  00000-0  00000-0 0  2816
2 32395  64.3786 237.6090 0015610 354.3538 281.2050  2.13102854    14
COSMOS 2456 (730)       
1 36111C 09070A   22281.99979167 -.00000000  00000-0  00000-0 0  2815
2 36111  64.3820 117.1548 0001544 341.5760 322.2014  2.13099326    14
COSMOS 2457 (733)       
1 36112C 09070B   22281.99979167 -.00000000  00000-0  00000-0 0  2816
2 36112  64.3654 117.0278 0006556 148.8416 283.1223  2.13101466    19
COSMOS 2461 (735)       
1 36401C 10007B   22281.99979167  .00000000  00000-0  00000-0 0  2818
2 36401  64.8124   1.5681 0012400 276.3341 190.8205  2.13101741    11
COSMOS 2460 (732)       
1 36402C 10007C   22281.99979167  .00000000  00000-0  00000-0 0  2819
2 36402  65.9450 359.6750 0001686 202.7847 213.8168  2.13106251    13
COSMOS 2476 (744)       
1 37867C 11064A   22281.99979167 -.00000000  00000-0  00000-0 0  2810
2 37867  64.6686 118.5552 0020497 230.5060 339.7259  2.13101884    11
COSMOS 2477 (745)       
1 37868C 11064B   22281.99979167 -.00000000  00000-0  00000-0 0  2811
2 37868  64.6762 118.6211 0017811 230.8011 157.4953  2.13101685    10
COSMOS 2475 (743)       
1 37869C 11064C   22281.99979167 -.00000000  00000-0  00000-0 0  2812
2 37869  64.6834 118.6303 0021459 250.8410  95.6067  2.13102011    14
COSMOS 2485 (747)       
1 39155C 13019A   22281.99979167 -.00000000  00000-0  00000-0 0  2814
2 39155  64.8315 119.0080 0021130 226.3394  28.3022  2.13102025    11
COSMOS 2492 (754)       
1 39620C 14012A   22281.99979167  .00000000  00000-0  00000-0 0  2814
2 39620  65.8308 359.3403 0012093 314.5777 334.4182  2.13103080    12
COSMOS 2500 (755)       
1 40001C 14032A   22281.99979167  .00000000  00000-0  00000-0 0  2811
2 40001  65.7700 359.1931 0008289 203.2749 304.0604  2.13102038    15
COSMOS 2501 (702K)      
1 40315C 14075A   22281.99979167  .00000000  00000-0  00000-0 0  2816
2 40315  63.6758 237.1952 0018781 211.4385 104.4596  2.13101375    11
COSMOS 2514 (751)       
1 41330C 16008A   22281.99979167  .00000000  00000-0  00000-0 0  2812
2 41330  65.5695 358.8567 0011970 211.5817 119.7945  2.13102582    15
COSMOS 2547 (705K)      
1 46805C 20075A   22281.99979167  .00000000  00000-0  00000-0 0  2813
2 46805  64.6478 237.6316 0007990 247.6415 341.7890  2.13102986    17
COSMOS 2522 (752)       
1 42939C 17055A   22281.99979167  .00000000  00000-0  00000-0 0  2811
2 42939  64.1357 237.9316 0009060 246.0837 205.2708  2.13101989    10
COSMOS 2527 (756)       
1 43508C 18053A   22281.99979167 -.00000000  00000-0  00000-0 0  2814
2 43508  64.9941 119.0317 0007296 213.6723 269.7470  2.13102555    15
COSMOS 2529 (757)       
1 43687C 18086A   22281.99979167  .00000000  00000-0  00000-0 0  2817
2 43687  64.3508 238.2783 0011005 266.1453 140.7286  2.13102111    14
COSMOS 2534 (758)       
1 44299C 19030A   22281.99979167  .00000000  00000-0  00000-0 0  2817
2 44299  64.4228 238.1736 0013531 285.1137 256.2361  2.13101790    16
COSMOS 2544 (759)       
1 44850C 19088A   22281.99979167 -.00000000  00000-0  00000-0 0  2814
2 44850  64.9795 118.8815 0010591 251.0114 275.7796  2.13102311    13
COSMOS 2545 (760)       
1 45358C 20018A   22281.99979167  .00000000  00000-0  00000-0 0  2812
2 45358  64.9082 359.3716 0010520 240.7633 135.3614  2.13102547    12
